ONEWEB-0593             
1 54659U 22166T   23286.86749108  .00000729  00000+0  17359-2 0  9994
2 54659  87.9198  78.5455 0001789 101.3634 258.7701 13.21774107 42908
ONEWEB-0594             
1 54660U 22166U   23287.41628499  .00001497  00000+0  35952-2 0  9999
2 54660  87.9165  78.4320 0001901  91.8507 268.2844 13.21791968 42988
ONEWEB-0595             
1 54661U 22166V   23287.46931004 -.00000044  00000+0 -13870-3 0  9999
2 54661  87.9193  78.4156 0001402  85.4668 274.6626 13.21581637 42978
ONEWEB-0596             
1 54662U 22166W   23286.91353805  .00008537  00000+0  20617-1 0  9994
2 54662  87.9194  78.5276 0001271 140.5535 219.5692 13.21834781 42437
ONEWEB-0597             
1 54663U 22166X   23286.97029716 -.00000539  00000+0 -13360-2 0  9996
2 54663  87.9193  78.5171 0001934 103.2000 256.9350 13.21877940 42913
ONEWEB-0600             
1 54664U 22166Y   23287.40622881 -.00000360  00000+0 -90688-3 0  9999
2 54664  87.9200  78.4802 0001932  96.6573 263.4781 13.21580439 42949
ONEWEB-0601             
1 54665U 22166Z   23287.17150061 -.00000330  00000+0 -83164-3 0  9998
2 54665  87.9195  78.4769 0001505 110.7151 249.4144 13.21684215 43092
ONEWEB-0602             
1 54666U 22166AA  23287.44088249  .00000173  00000+0  38652-3 0  9992
2 54666  87.9196  78.4301 0001760 102.4085 257.7246 13.22049733 42986
